NORAD_CAT_ID,OBJECT_NAME,OBJECT_TYPE,EPOCH,MEAN_MOTION,ECCENTRICITY,INCLINATION,RA_OF_ASC_NODE,ARG_OF_PERICENTER,MEAN_ANOMALY,BSTAR,MEAN_MOTION_DOT,MEAN_MOTION_DDOT,TLE_LINE0,TLE_LINE1,TLE_LINE2,SEMIMAJOR_AXIS,PERIOD,APOGEE,PERIGEE,DECAYED
51146.0,STARLINK-3354,PAYLOAD,2022-02-02 22:00:00,15.78323092,0.0001161,53.2172,200.8915,69.2424,93.4581,-0.0050681,-0.00811284,0.0,0 STARLINK-3354,1 51146U 22005AU  22033.91667824 -.00811284  00000-0 -50681-2 0  9997,2 51146  53.2172 200.8915 0001161  69.2424  93.4581 15.78323092  2800,6713.329000000002,91.236,335.973,334.414,0.0
51146.0,STARLINK-3354,PAYLOAD,2022-02-03 06:00:00,15.7774182,0.0001139,53.2175,199.228,69.8474,187.5843,-0.0052557,-0.00818753,0.0,0 STARLINK-3354,1 51146U 22005AU  22034.25001157 -.00818753  00000-0 -52557-2 0  9998,2 51146  53.2175 199.2280 0001139  69.8474 187.5843 15.77741820  3714,6714.977,91.27,337.607,336.077,0.0
51146.0,STARLINK-3354,PAYLOAD,2022-02-03 14:00:01,15.7715814,0.0001153,53.2177,197.5686,55.668,295.7901,-0.0054225,-0.00822493,0.0,0 STARLINK-3354,1 51146U 22005AU  22034.58334491 -.00822493  00000-0 -54225-2 0  9994,2 51146  53.2177 197.5686 0001153  55.6680 295.7901 15.77158140  2910,6716.634,91.303,339.273,337.725,0.0
51146.0,STARLINK-3354,PAYLOAD,2022-02-03 22:00:01,15.76569204,0.0001075,53.2174,195.9113,64.9187,19.9288,-0.0055247,-0.00816757,0.0,0 STARLINK-3354,1 51146U 22005AU  22034.91668981 -.00816757  00000-0 -55247-2 0  9996,2 51146  53.2174 195.9113 0001075  64.9187  19.9288 15.76569204  2978,6718.307,91.338,340.894,339.449,0.0
51146.0,STARLINK-3354,PAYLOAD,2022-02-04 06:00:00,15.75982921,0.0001333,53.2175,194.2522,50.949,126.4535,-0.0056623,-0.00815742,0.0,0 STARLINK-3354,1 51146U 22005AU  22035.25001157 -.00815742  00000-0 -56623-2 0  9992,2 51146  53.2175 194.2522 0001333  50.9490 126.4535 15.75982921  3866,6719.973000000001,91.372,342.733,340.94199999999995,0.0
51146.0,STARLINK-3354,PAYLOAD,2022-02-04 14:00:01,15.75399216,0.0001475,53.2176,192.5975,43.8684,225.5139,-0.0058409,-0.00819691,0.0,0 STARLINK-3354,1 51146U 22005AU  22035.58335648 -.00819691  00000-0 -58409-2 0  9994,2 51146  53.2176 192.5975 0001475  43.8684 225.5139 15.75399216  3076,6721.632,91.405,344.48900000000015,342.506,0.0
51146.0,STARLINK-3354,PAYLOAD,2022-02-04 22:00:00,15.74815576,0.0001055,53.2172,190.9446,58.2276,302.2983,-0.0060135,-0.00822158,0.0,0 STARLINK-3354,1 51146U 22005AU  22035.91667824 -.00822158  00000-0 -60135-2 0  9996,2 51146  53.2172 190.9446 0001055  58.2276 302.2983 15.74815576  3136,6723.293000000002,91.439,345.867,344.449,0.0
51146.0,STARLINK-3354,PAYLOAD,2022-02-05 06:00:00,15.74126188,0.000135,53.2186,189.2924,32.8749,58.213,-0.0050966,-0.0068724999999999,0.0,0 STARLINK-3354,1 51146U 22005AU  22036.25001157 -.00687250  00000-0 -50966-2 0  9998,2 51146  53.2186 189.2924 0001350  32.8749  58.2130 15.74126188  4029,6725.255999999999,91.479,348.029,346.213,0.0
51146.0,STARLINK-3354,PAYLOAD,2022-02-05 14:00:01,15.73496997,0.0001617,53.2176,187.6392,38.6795,142.185,-0.0030215,-0.00409884,0.0,0 STARLINK-3354,1 51146U 22005AU  22036.58334491 -.00409884  00000-0 -30215-2 0  9994,2 51146  53.2176 187.6392 0001617  38.6795 142.1850 15.73496997  3242,6727.049,91.516,350.001,347.826,0.0
51146.0,STARLINK-3354,PAYLOAD,2022-02-05 18:00:02,15.73230125,0.0001332,53.2179,186.8156,56.094,349.457,-0.00030363,-0.0004307,0.0,0 STARLINK-3354,1 51146U 22005AU  22036.75002315 -.00043070  00000-0 -30363-3 0  9996,2 51146  53.2179 186.8156 0001332  56.0940 349.4570 15.73230125  4100,6727.809,91.531,350.57,348.778,0.0
51146.0,STARLINK-3354,PAYLOAD,2022-02-07 00:17:55,15.73521107,0.0003796,53.2234,180.5809,9.1448,350.9641,0.00089075,0.00128101,0.0,0 STARLINK-3354,1 51146U 22005AU  22038.01244289  .00128101  00000-0  89075-3 0  9996,2 51146  53.2234 180.5809 0003796   9.1448 350.9641 15.73521107  4307,6726.98,91.515,351.398,346.291,0.0
51146.0,STARLINK-3354,PAYLOAD,2022-02-08 22:02:28,15.73221644,0.0001785,53.2175,171.1493,42.2622,317.8536,0.00021345,0.00029469,0.0,0 STARLINK-3354,1 51146U 22005AU  22039.91838869  .00029469  00000-0  21345-3 0  9992,2 51146  53.2175 171.1493 0001785  42.2622 317.8536 15.73221644  4605,6727.833000000001,91.532,350.899,348.49800000000016,0.0
51146.0,STARLINK-3354,PAYLOAD,2022-02-09 08:42:49,15.73260941,0.0001624,53.2175,168.9503,31.3085,328.8031,0.00026236,0.00036457,0.0,0 STARLINK-3354,1 51146U 22005AU  22040.36307207  .00036457  00000-0  26236-3 0  9999,2 51146  53.2175 168.9503 0001624  31.3085 328.8031 15.73260941  4677,6727.721,91.53,350.67900000000014,348.494,0.0
51146.0,STARLINK-3354,PAYLOAD,2022-02-09 20:00:01,15.73216653,0.000207,53.2165,166.6249,27.4222,117.7051,1.1937e-05,1.055e-05,0.0,0 STARLINK-3354,1 51146U 22005AU  22040.83334491  .00001055  00000-0  11937-4 0  9995,2 51146  53.2165 166.6249 0002070  27.4222 117.7051 15.73216653  4749,6727.848000000001,91.532,351.105,348.32,0.0
51146.0,STARLINK-3354,PAYLOAD,2022-02-10 06:00:00,15.73205736,0.0002114,53.2173,164.5438,41.1443,304.9667,-1.787e-05,-3.129e-05,0.0,0 STARLINK-3354,1 51146U 22005AU  22041.25001157 -.00003129  00000-0 -17870-4 0  9990,2 51146  53.2173 164.5438 0002114  41.1443 304.9667 15.73205736  4813,6727.879,91.533,351.166,348.32199999999995,0.0
51146.0,STARLINK-3354,PAYLOAD,2022-02-10 13:40:54,15.73239601,0.0001931,53.2167,162.9769,26.1829,333.9288,0.00020135,0.0002778,0.0,0 STARLINK-3354,1 51146U 22005AU  22041.57007950  .00027780  00000-0  20135-3 0  9996,2 51146  53.2167 162.9769 0001931  26.1829 333.9288 15.73239601  3742,6727.781999999997,91.531,350.946,348.348,0.0
51146.0,STARLINK-3354,PAYLOAD,2022-02-10 14:00:01,15.73232281,0.0001984,53.2164,162.9131,20.1572,55.1772,-0.00047438,-0.00066768,0.0,0 STARLINK-3354,1 51146U 22005AU  22041.58335648 -.00066768  00000-0 -47438-3 0  9991,2 51146  53.2164 162.9131 0001984  20.1572  55.1772 15.73232281  4861,6727.803000000001,91.531,351.00300000000016,348.333,0.0
51146.0,STARLINK-3354,PAYLOAD,2022-02-10 20:00:01,15.73184952,0.0002112,53.216,161.6764,16.6597,35.3968,0.00056393,0.00079226,0.0,0 STARLINK-3354,1 51146U 22005AU  22041.83335648  .00079226  00000-0  56393-3 0  9990,2 51146  53.2160 161.6764 0002112  16.6597  35.3968 15.73184952  4909,6727.938,91.534,351.224,348.38199999999995,0.0
51146.0,STARLINK-3354,PAYLOAD,2022-02-10 22:00:00,15.73220274,0.0002061,53.2161,161.2636,17.4845,146.7305,0.00017337,0.00023802,0.0,0 STARLINK-3354,1 51146U 22005AU  22041.91667824  .00023802  00000-0  17337-3 0  9997,2 51146  53.2161 161.2636 0002061  17.4845 146.7305 15.73220274  3710,6727.837,91.532,351.089,348.316,0.0
51146.0,STARLINK-3354,PAYLOAD,2022-02-11 06:00:00,15.73245107,0.0001892,53.2165,159.6122,22.1862,230.9931,-0.00013198,-0.00019138,0.0,0 STARLINK-3354,1 51146U 22005AU  22042.25001157 -.00019138  00000-0 -13198-3 0  9996,2 51146  53.2165 159.6122 0001892  22.1862 230.9931 15.73245107  4970,6727.767,91.531,350.904,348.3590000000001,0.0
51146.0,STARLINK-3354,PAYLOAD,2022-02-11 14:04:33,15.73262523,0.0001992,53.217,157.9475,25.3024,334.8094,0.00016392,0.00022508,0.0,0 STARLINK-3354,1 51146U 22005AU  22042.58650455  .00022508  00000-0  16392-3 0  9995,2 51146  53.2170 157.9475 0001992  25.3024 334.8094 15.73262523  3901,6727.717,91.53,350.922,348.242,0.0
51146.0,STARLINK-3354,PAYLOAD,2022-02-11 22:00:01,15.7326969,0.0002313,53.2166,156.3145,19.1829,52.0617,-0.00072995,-0.00102149,0.0,0 STARLINK-3354,1 51146U 22005AU  22042.91668981 -.00102149  00000-0 -72995-3 0  9998,2 51146  53.2166 156.3145 0002313  19.1829  52.0617 15.73269690  5077,6727.696,91.529,351.11800000000005,348.005,0.0
51146.0,STARLINK-3354,PAYLOAD,2022-02-12 03:47:52,15.73246974,0.0002235,53.2153,155.1181,35.078,325.0387,9.9426e-05,0.00013383,0.0,0 STARLINK-3354,1 51146U 22005AU  22043.15824538  .00013383  00000-0  99426-4 0  9995,2 51146  53.2153 155.1181 0002235  35.0780 325.0387 15.73246974  5118,6727.761,91.53,351.13,348.12300000000016,0.0
51146.0,STARLINK-3354,PAYLOAD,2022-02-12 12:56:45,15.73200016,0.0002526,53.2174,153.2315,20.4191,339.6929,-3.9068e-06,-1.17e-05,0.0,0 STARLINK-3354,1 51146U 22005AU  22043.53941809 -.00001170  00000-0 -39068-5 0  9998,2 51146  53.2174 153.2315 0002526  20.4191 339.6929 15.73200016  5172,6727.895,91.533,351.46,348.061,0.0
51146.0,STARLINK-3354,PAYLOAD,2022-02-12 22:00:00,15.73055081,0.0002381,53.2165,151.3667,17.4561,320.3421,0.0010068999999999,0.0014222999999999,0.0,0 STARLINK-3354,1 51146U 22005AU  22043.91667824  .00142230  00000-0  10069-2 0  9990,2 51146  53.2165 151.3667 0002381  17.4561 320.3421 15.73055081  5238,6728.308000000001,91.542,351.775,348.571,0.0
51146.0,STARLINK-3354,PAYLOAD,2022-02-13 12:00:00,15.73198553,0.0002464,53.2171,148.4805,20.5363,22.7509,-0.00031504,-0.00044606,0.0,0 STARLINK-3354,1 51146U 22005AU  22044.50001157 -.00044606  00000-0 -31504-3 0  9995,2 51146  53.2171 148.4805 0002464  20.5363  22.7509 15.73198553  5325,6727.899,91.533,351.422,348.107,0.0
51146.0,STARLINK-3354,PAYLOAD,2022-02-13 14:00:01,15.73163862,0.0002596,53.2171,148.0685,20.838,134.6865,0.00017522,0.00024005,0.0,0 STARLINK-3354,1 51146U 22005AU  22044.58334491  .00024005  00000-0  17522-3 0  9996,2 51146  53.2171 148.0685 0002596  20.8380 134.6865 15.73163862  3720,6727.998000000001,91.535,351.61,348.117,0.0
51146.0,STARLINK-3354,PAYLOAD,2022-02-13 22:00:00,15.73199691,0.0002599,53.217,146.4187,21.3671,223.0357,9.5146e-05,0.00012753,0.0,0 STARLINK-3354,1 51146U 22005AU  22044.91667824  .00012753  00000-0  95146-4 0  9998,2 51146  53.2170 146.4187 0002599  21.3671 223.0357 15.73199691  5393,6727.896,91.533,351.51,348.01199999999994,0.0
51146.0,STARLINK-3354,PAYLOAD,2022-02-14 12:00:02,15.73260363,0.0002697,53.217,143.5326,22.626,287.4983,0.00011752,0.00015947,0.0,0 STARLINK-3354,1 51146U 22005AU  22045.50002315  .00015947  00000-0  11752-3 0  9990,2 51146  53.2170 143.5326 0002697  22.6260 287.4983 15.73260363  5487,6727.723000000001,91.53,351.403,347.774,0.0
